CCSDS_OMM_VERS = 2.0
CREATION_DATE  = 
ORIGINATOR     = 

OBJECT_NAME    = SL-3 R/B
OBJECT_ID      = 1982-039B
CENTER_NAME    = EARTH
REF_FRAME      = TEME
TIME_SYSTEM    = UTC
MEAN_ELEMENT_THEORY = SGP/SGP4

EPOCH          = 2025-10-27T11:57:28.386144
MEAN_MOTION    = 15.09160820
ECCENTRICITY   = .0032861
INCLINATION    = 81.1844
RA_OF_ASC_NODE = 9.2498
ARG_OF_PERICENTER = 41.5813
MEAN_ANOMALY   = 318.7902

EPHEMERIS_TYPE = 0
CLASSIFICATION_TYPE = U
NORAD_CAT_ID   = 13154
ELEMENT_SET_NO = 999
REV_AT_EPOCH   = 36154
BSTAR          = .19817E-3
MEAN_MOTION_DOT = .3209E-4
MEAN_MOTION_DDOT = 0

CCSDS_OMM_VERS = 2.0
CREATION_DATE  = 
ORIGINATOR     = 

OBJECT_NAME    = SL-3 R/B
OBJECT_ID      = 1982-079B
CENTER_NAME    = EARTH
REF_FRAME      = TEME
TIME_SYSTEM    = UTC
MEAN_ELEMENT_THEORY = SGP/SGP4

EPOCH          = 2025-10-27T12:00:22.446720
MEAN_MOTION    = 15.22882487
ECCENTRICITY   = .0024539
INCLINATION    = 81.1484
RA_OF_ASC_NODE = 350.1417
ARG_OF_PERICENTER = 254.9334
MEAN_ANOMALY   = 104.9183

EPHEMERIS_TYPE = 0
CLASSIFICATION_TYPE = U
NORAD_CAT_ID   = 13403
ELEMENT_SET_NO = 999
REV_AT_EPOCH   = 35741
BSTAR          = .26573E-3
MEAN_MOTION_DOT = .6303E-4
MEAN_MOTION_DDOT = 0

CCSDS_OMM_VERS = 2.0
CREATION_DATE  = 
ORIGINATOR     = 

OBJECT_NAME    = SL-14 R/B
OBJECT_ID      = 1982-092B
CENTER_NAME    = EARTH
REF_FRAME      = TEME
TIME_SYSTEM    = UTC
MEAN_ELEMENT_THEORY = SGP/SGP4

EPOCH          = 2025-10-27T10:44:48.617088
MEAN_MOTION    = 14.86473449
ECCENTRICITY   = .0021218
INCLINATION    = 82.5658
RA_OF_ASC_NODE = 266.0047
ARG_OF_PERICENTER = 27.5078
MEAN_ANOMALY   = 94.2570

EPHEMERIS_TYPE = 0
CLASSIFICATION_TYPE = U
NORAD_CAT_ID   = 13553
ELEMENT_SET_NO = 999
REV_AT_EPOCH   = 30913
BSTAR          = .1062E-3
MEAN_MOTION_DOT = .967E-5
MEAN_MOTION_DDOT = 0

CCSDS_OMM_VERS = 2.0
CREATION_DATE  = 
ORIGINATOR     = 

OBJECT_NAME    = SL-3 R/B
OBJECT_ID      = 1983-010B
CENTER_NAME    = EARTH
REF_FRAME      = TEME
TIME_SYSTEM    = UTC
MEAN_ELEMENT_THEORY = SGP/SGP4

EPOCH          = 2025-10-27T03:12:22.788576
MEAN_MOTION    = 15.41820167
ECCENTRICITY   = .00179675
INCLINATION    = 81.1045
RA_OF_ASC_NODE = 165.4336
ARG_OF_PERICENTER = 148.0018
MEAN_ANOMALY   = 212.2319

EPHEMERIS_TYPE = 0
CLASSIFICATION_TYPE = U
NORAD_CAT_ID   = 13819
ELEMENT_SET_NO = 999
REV_AT_EPOCH   = 33733
BSTAR          = .3000041E-3
MEAN_MOTION_DOT = .12817E-3
MEAN_MOTION_DDOT = 0

CCSDS_OMM_VERS = 2.0
CREATION_DATE  = 
ORIGINATOR     = 

OBJECT_NAME    = SL-3 R/B
OBJECT_ID      = 1983-075B
CENTER_NAME    = EARTH
REF_FRAME      = TEME
TIME_SYSTEM    = UTC
MEAN_ELEMENT_THEORY = SGP/SGP4

EPOCH          = 2025-10-27T10:51:17.264160
MEAN_MOTION    = 15.34784135
ECCENTRICITY   = .0023084
INCLINATION    = 97.6107
RA_OF_ASC_NODE = 295.4288
ARG_OF_PERICENTER = 351.1487
MEAN_ANOMALY   = 8.9345

EPHEMERIS_TYPE = 0
CLASSIFICATION_TYPE = U
NORAD_CAT_ID   = 14208
ELEMENT_SET_NO = 999
REV_AT_EPOCH   = 30969
BSTAR          = .37628E-3
MEAN_MOTION_DOT = .12719E-3
MEAN_MOTION_DDOT = 0

CCSDS_OMM_VERS = 2.0
CREATION_DATE  = 
ORIGINATOR     = 

OBJECT_NAME    = COSMOS 1536
OBJECT_ID      = 1984-013A
CENTER_NAME    = EARTH
REF_FRAME      = TEME
TIME_SYSTEM    = UTC
MEAN_ELEMENT_THEORY = SGP/SGP4

EPOCH          = 2025-10-27T06:18:00.389664
MEAN_MOTION    = 15.21645633
ECCENTRICITY   = .0016808
INCLINATION    = 82.5457
RA_OF_ASC_NODE = 240.2211
ARG_OF_PERICENTER = 38.1009
MEAN_ANOMALY   = 322.1412

EPHEMERIS_TYPE = 0
CLASSIFICATION_TYPE = U
NORAD_CAT_ID   = 14699
ELEMENT_SET_NO = 999
REV_AT_EPOCH   = 25231
BSTAR          = .42683E-3
MEAN_MOTION_DOT = .9713E-4
MEAN_MOTION_DDOT = 0

CCSDS_OMM_VERS = 2.0
CREATION_DATE  = 
ORIGINATOR     = 

OBJECT_NAME    = SL-14 R/B
OBJECT_ID      = 1984-027B
CENTER_NAME    = EARTH
REF_FRAME      = TEME
TIME_SYSTEM    = UTC
MEAN_ELEMENT_THEORY = SGP/SGP4

EPOCH          = 2025-10-27T06:58:13.432800
MEAN_MOTION    = 14.85804954
ECCENTRICITY   = .0019298
INCLINATION    = 82.5449
RA_OF_ASC_NODE = 10.1107
ARG_OF_PERICENTER = 58.0740
MEAN_ANOMALY   = 302.2350

EPHEMERIS_TYPE = 0
CLASSIFICATION_TYPE = U
NORAD_CAT_ID   = 14820
ELEMENT_SET_NO = 999
REV_AT_EPOCH   = 22782
BSTAR          = .74659E-4
MEAN_MOTION_DOT = .676E-5
MEAN_MOTION_DDOT = 0

CCSDS_OMM_VERS = 2.0
CREATION_DATE  = 
ORIGINATOR     = 

OBJECT_NAME    = SL-8 R/B
OBJECT_ID      = 1985-006B
CENTER_NAME    = EARTH
REF_FRAME      = TEME
TIME_SYSTEM    = UTC
MEAN_ELEMENT_THEORY = SGP/SGP4

EPOCH          = 2025-10-27T01:42:16.155648
MEAN_MOTION    = 14.37679349
ECCENTRICITY   = .00174084
INCLINATION    = 74.0438
RA_OF_ASC_NODE = 146.9956
ARG_OF_PERICENTER = 95.2155
MEAN_ANOMALY   = 18.9696

EPHEMERIS_TYPE = 0
CLASSIFICATION_TYPE = U
NORAD_CAT_ID   = 15483
ELEMENT_SET_NO = 999
REV_AT_EPOCH   = 13482
BSTAR          = .96084338E-4
MEAN_MOTION_DOT = .263E-5
MEAN_MOTION_DDOT = 0

CCSDS_OMM_VERS = 2.0
CREATION_DATE  = 
ORIGINATOR     = 

OBJECT_NAME    = SL-12 R/B(2)
OBJECT_ID      = 1985-042D
CENTER_NAME    = EARTH
REF_FRAME      = TEME
TIME_SYSTEM    = UTC
MEAN_ELEMENT_THEORY = SGP/SGP4

EPOCH          = 2025-10-27T12:49:34.515264
MEAN_MOTION    = 14.21930435
ECCENTRICITY   = .0036486
INCLINATION    = 71.1103
RA_OF_ASC_NODE = 9.0345
ARG_OF_PERICENTER = 329.6258
MEAN_ANOMALY   = 127.3387

EPHEMERIS_TYPE = 0
CLASSIFICATION_TYPE = U
NORAD_CAT_ID   = 15772
ELEMENT_SET_NO = 999
REV_AT_EPOCH   = 9546
BSTAR          = .11829E-3
MEAN_MOTION_DOT = .215E-5
MEAN_MOTION_DDOT = 0

CCSDS_OMM_VERS = 2.0
CREATION_DATE  = 
ORIGINATOR     = 

OBJECT_NAME    = SL-14 R/B
OBJECT_ID      = 1985-069B
CENTER_NAME    = EARTH
REF_FRAME      = TEME
TIME_SYSTEM    = UTC
MEAN_ELEMENT_THEORY = SGP/SGP4

EPOCH          = 2025-10-27T07:34:13.878624
MEAN_MOTION    = 14.86245888
ECCENTRICITY   = .0017344
INCLINATION    = 82.5260
RA_OF_ASC_NODE = 150.3485
ARG_OF_PERICENTER = 274.9733
MEAN_ANOMALY   = 84.9504

EPHEMERIS_TYPE = 0
CLASSIFICATION_TYPE = U
NORAD_CAT_ID   = 15945
ELEMENT_SET_NO = 999
REV_AT_EPOCH   = 15302
BSTAR          = .70599E-4
MEAN_MOTION_DOT = .646E-5
MEAN_MOTION_DDOT = 0

CCSDS_OMM_VERS = 2.0
CREATION_DATE  = 
ORIGINATOR     = 

OBJECT_NAME    = SL-16 R/B
OBJECT_ID      = 1985-097B
CENTER_NAME    = EARTH
REF_FRAME      = TEME
TIME_SYSTEM    = UTC
MEAN_ELEMENT_THEORY = SGP/SGP4

EPOCH          = 2025-10-27T12:43:28.771104
MEAN_MOTION    = 14.16574146
ECCENTRICITY   = .0005288
INCLINATION    = 71.0034
RA_OF_ASC_NODE = 60.8833
ARG_OF_PERICENTER = 103.2029
MEAN_ANOMALY   = 331.4708

EPHEMERIS_TYPE = 0
CLASSIFICATION_TYPE = U
NORAD_CAT_ID   = 16182
ELEMENT_SET_NO = 999
REV_AT_EPOCH   = 6837
BSTAR          = .18092E-3
MEAN_MOTION_DOT = .313E-5
MEAN_MOTION_DDOT = 0

CCSDS_OMM_VERS = 2.0
CREATION_DATE  = 
ORIGINATOR     = 

OBJECT_NAME    = SL-14 R/B
OBJECT_ID      = 1986-006B
CENTER_NAME    = EARTH
REF_FRAME      = TEME
TIME_SYSTEM    = UTC
MEAN_ELEMENT_THEORY = SGP/SGP4

EPOCH          = 2025-10-27T12:38:16.517184
MEAN_MOTION    = 14.86578909
ECCENTRICITY   = .0076691
INCLINATION    = 82.5302
RA_OF_ASC_NODE = 25.0249
ARG_OF_PERICENTER = 355.2701
MEAN_ANOMALY   = 4.7780

EPHEMERIS_TYPE = 0
CLASSIFICATION_TYPE = U
NORAD_CAT_ID   = 16496
ELEMENT_SET_NO = 999
REV_AT_EPOCH   = 12942
BSTAR          = .85842E-4
MEAN_MOTION_DOT = .828E-5
MEAN_MOTION_DDOT = 0

