SL-3 R/B                
1 13154U 82039B   25300.49824521  .00003209  00000+0  19817-3 0  9993
2 13154  81.1844   9.2498 0032861  41.5813 318.7902 15.09160820361547
SL-3 R/B                
1 13403U 82079B   25300.50025980  .00006303  00000+0  26573-3 0  9993
2 13403  81.1484 350.1417 0024539 254.9334 104.9183 15.22882487357416
SL-14 R/B               
1 13553U 82092B   25300.44778492  .00000967  00000+0  10620-3 0  9996
2 13553  82.5658 266.0047 0021218  27.5078  94.2570 14.86473449309134
SL-3 R/B                
1 13819U 83010B   25300.13359709  .00012817  00000+0  30000-3 0  9995
2 13819  81.1045 165.4336 0017967 148.0018 212.2319 15.41820167337337
SL-3 R/B                
1 14208U 83075B   25300.45228315  .00012719  00000+0  37628-3 0  9996
2 14208  97.6107 295.4288 0023084 351.1487   8.9345 15.34784135309698
COSMOS 1536             
1 14699U 84013A   25300.26250451  .00009713  00000+0  42683-3 0  9995
2 14699  82.5457 240.2211 0016808  38.1009 322.1412 15.21645633252312
SL-14 R/B               
1 14820U 84027B   25300.29043325  .00000676  00000+0  74659-4 0  9997
2 14820  82.5449  10.1107 0019298  58.0740 302.2350 14.85804954227826
SL-8 R/B                
1 15483U 85006B   25300.07102032  .00000263  00000+0  96084-4 0  9996
2 15483  74.0438 146.9956 0017408  95.2155  18.9696 14.37679349134826
SL-12 R/B(2)            
1 15772U 85042D   25300.53442726  .00000215  00000+0  11829-3 0  9995
2 15772  71.1103   9.0345 0036486 329.6258 127.3387 14.21930435 95467
SL-14 R/B               
1 15945U 85069B   25300.31543841  .00000646  00000+0  70599-4 0  9990
2 15945  82.5260 150.3485 0017344 274.9733  84.9504 14.86245888153024
SL-16 R/B               
1 16182U 85097B   25300.53019411  .00000313  00000+0  18092-3 0  9990
2 16182  71.0034  60.8833 0005288 103.2029 331.4708 14.16574146 68372
SL-14 R/B               
1 16496U 86006B   25300.52658006  .00000828  00000+0  85842-4 0  9996
2 16496  82.5302  25.0249 0076691 355.2701   4.7780 14.86578909129423
